     2.100          NAVIGATION                              RINEX VERSION / TYPE
fic2rin                                 12/13/2010 00:13:29 PGM / RUN BY / DATE
                                                            END OF HEADER
24 10 12 12  1 59 44.0  .346915796399D-03  .341060513165D-11  .000000000000D+00
     .100000000000D+01  .372500000000D+02  .488984653888D-08  .171222769912D+01
     .187382102013D-05  .582549301907D-02  .762753188610D-05  .515473369026D+04
     .718400000000D+04  .689178705215D-07  .207084484332D+01  .521540641785D-07
     .948394127325D+00  .224687500000D+03 -.288379199534D+00 -.817069748520D-08
     .145363197818D-09  .100000000000D+01  .161400000000D+04  .000000000000D+00
     .240000000000D+01  .000000000000D+00 -.139698386192D-08  .100000000000D+01
     .600000000000D+01  .400000000000D+01
 1 10 12 12  2  0  0.0 -.190449412912D-03 -.341060513165D-11  .000000000000D+00
     .720000000000D+02 -.584375000000D+02  .448518682603D-08 -.244896757751D+01
    -.295974314213D-05  .438900210429D-02  .558979809284D-05  .515353485489D+04
     .720000000000D+04  .372529029846D-08 -.786272136991D-01 -.186264514923D-08
     .967367042515D+00  .275718750000D+03  .929226831284D+00 -.808926552181D-08
    -.964325882329D-10  .100000000000D+01  .161400000000D+04  .000000000000D+00
     .240000000000D+01  .630000000000D+02 -.190921127796D-07  .720000000000D+02
     .600000000000D+01  .400000000000D+01
 2 10 12 12  2  0  0.0  .308069866151D-03  .238742359215D-11  .000000000000D+00
     .470000000000D+02  .340000000000D+02  .505663920075D-08  .228259888375D+01
     .180490314960D-05  .984120182693D-02  .755675137043D-05  .515367935181D+04
     .720000000000D+04 -.189989805222D-06  .200178262397D+01  .169500708580D-06
     .939043791332D+00  .218656250000D+03 -.312169742122D+01 -.828034490960D-08
     .161792453591D-09  .100000000000D+01  .161400000000D+04  .000000000000D+00
     .240000000000D+01  .000000000000D+00 -.172294676304D-07  .470000000000D+02
     .600000000000D+01  .400000000000D+01
 3 10 12 12  2  0  0.0  .647373497486D-03  .522959453519D-11  .000000000000D+00
     .800000000000D+02 -.605625000000D+02  .507842582253D-08  .218963991221D+01
    -.329129397869D-05  .138612377923D-01  .970251858234D-05  .515363204765D+04
     .720000000000D+04  .242143869400D-07  .846093129164D+00 -.305473804474D-06
     .927915853340D+00  .174062500000D+03  .106489791832D+01 -.819034116058D-08
    -.607168148133D-11  .100000000000D+01  .161400000000D+04  .000000000000D+00
     .240000000000D+01  .000000000000D+00 -.465661287308D-08  .800000000000D+02
     .600000000000D+01  .400000000000D+01
 4 10 12 12  2  0  0.0  .242540147156D-03  .977706804406D-11  .000000000000D+00
     .660000000000D+02  .326875000000D+02  .507592571839D-08 -.106434702873D+01
     .189431011677D-05  .952202803455D-02  .697374343872D-05  .515379853630D+04
     .720000000000D+04  .178813934326D-06  .201940248769D+01  .409781932831D-07
     .938166978215D+00  .227281250000D+03  .690103685566D+00 -.834249035535D-08
     .233224000430D-09  .100000000000D+01  .161400000000D+04  .000000000000D+00
     .240000000000D+01  .000000000000D+00 -.605359673500D-08  .660000000000D+02
     .600000000000D+01  .400000000000D+01
 5 10 12 12  2  0  0.0 -.814786180854D-04 -.602540239925D-11  .000000000000D+00
     .360000000000D+02  .837500000000D+01  .482412951579D-08 -.232038336450D+01
     .277534127235D-06  .214326311834D-02  .670179724693D-05  .515357752800D+04
     .720000000000D+04 -.167638063431D-07  .306256702000D+01 -.838190317154D-07
     .956330552995D+00  .250812500000D+03  .218393483891D+00 -.820248452355D-08
    -.170364239212D-09  .100000000000D+01  .161400000000D+04  .000000000000D+00
     .240000000000D+01  .000000000000D+00 -.977888703346D-08  .360000000000D+02
     .600000000000D+01  .400000000000D+01
 6 10 12 12  2  0  0.0  .393862836063D-03 -.100044417195D-10  .000000000000D+00
     .800000000000D+02 -.453750000000D+02  .495984945478D-08 -.196036966019D+01
    -.221654772758D-05  .621881789993D-02  .101700425148D-04  .515365764618D+04
     .720000000000D+04 -.763684511185D-07  .918364414387D+00  .106170773506D-06
     .935090493678D+00  .169937500000D+03 -.898456596529D+00 -.823069998455D-08
     .292869342041D-10  .100000000000D+01  .161400000000D+04  .000000000000D+00
     .340000000000D+01  .000000000000D+00 -.465661287308D-08  .800000000000D+02
     .600000000000D+01  .400000000000D+01
 7 10 12 12  2  0  0.0  .280793756247D-06  .454747350886D-12  .000000000000D+00
     .540000000000D+02  .219375000000D+02  .438768276460D-08  .539394078626D+00
     .108033418655D-05  .417473062407D-02  .567920506001D-05  .515368000603D+04
     .720000000000D+04  .931322574615D-08 -.111726977699D+01 -.223517417908D-07
     .973258864618D+00  .273281250000D+03 -.311017313922D+01 -.813462455405D-08
     .703600736366D-10  .100000000000D+01  .161400000000D+04  .000000000000D+00
     .240000000000D+01  .000000000000D+00 -.102445483208D-07  .540000000000D+02
     .600000000000D+01  .400000000000D+01
 8 10 12 12  2  0  0.0  .703614205122D-05  .000000000000D+00  .000000000000D+00
     .710000000000D+02  .198125000000D+02  .391194866265D-08 -.504475449999D-02
     .931322574615D-06  .114852535771D-01  .562705099583D-05  .515363797951D+04
     .720000000000D+04  .113621354103D-06 -.104521318377D+01 -.186264514923D-08
     .994829100157D+00  .286781250000D+03 -.310206961758D+01 -.799461872225D-08
     .882179603464D-10  .100000000000D+01  .161400000000D+04  .000000000000D+00
     .340000000000D+01  .000000000000D+00 -.419095158577D-08  .710000000000D+02
     .600000000000D+01  .400000000000D+01
 9 10 12 12  2  0  0.0  .481689348817D-04  .238742359215D-11  .000000000000D+00
     .490000000000D+02  .266250000000D+02  .427874965567D-08 -.121483890372D+00
     .145472586155D-05  .169697914971D-01  .568665564060D-05  .515369103050D+04
     .720000000000D+04 -.225380063057D-06 -.114697845987D+01  .800937414169D-07
     .982243737343D+00  .282718750000D+03  .155444758820D+01 -.833820446254D-08
     .151434879299D-09  .100000000000D+01  .161400000000D+04  .000000000000D+00
     .240000000000D+01  .000000000000D+00 -.558793544769D-08  .490000000000D+02
     .600000000000D+01  .400000000000D+01
10 10 12 12  2  0  0.0 -.600731000304D-04 -.909494701773D-12  .000000000000D+00
     .510000000000D+02  .381250000000D+01  .489270380075D-08 -.211378952329D+01
    -.894069671631D-07  .978932285216D-02  .618956983089D-05  .515354687691D+04
     .720000000000D+04  .117346644402D-06  .308719457878D+01 -.111758708954D-06
     .951316617790D+00  .253156250000D+03  .675620691251D+00 -.817212611614D-08
    -.628597612185D-10  .100000000000D+01  .161400000000D+04  .000000000000D+00
     .240000000000D+01  .000000000000D+00 -.279396772385D-08  .510000000000D+02
     .600000000000D+01  .400000000000D+01
11 10 12 12  2  0  0.0 -.110672321171D-03 -.295585778076D-11  .000000000000D+00
     .480000000000D+02  .290625000000D+02  .628883338372D-08  .529964288626D+00
     .160746276379D-05  .115154695231D-01  .818073749542D-05  .515348464394D+04
     .720000000000D+04 -.124797224998D-06  .177300704161D+01  .124797224998D-06
     .887706461520D+00  .183562500000D+03  .893031284372D+00 -.899930342854D-08
     .152149194768D-09  .100000000000D+01  .161400000000D+04  .000000000000D+00
     .240000000000D+01  .000000000000D+00 -.116415321827D-07  .480000000000D+02
     .600000000000D+01  .400000000000D+01
12 10 12 12  2  0  0.0 -.456762500107D-04  .341060513165D-11  .000000000000D+00
     .320000000000D+02 -.625937500000D+02  .439554023475D-08  .650156766119D+00
    -.339746475220D-05  .337459403090D-02  .564008951187D-05  .515354803848D+04
     .720000000000D+04  .633299350739D-07 -.629899477613D-01 -.279396772385D-07
     .973485935837D+00  .275937500000D+03 -.327754414984D+00 -.809533720329D-08
    -.158578033983D-09  .100000000000D+01  .161400000000D+04  .000000000000D+00
     .240000000000D+01  .000000000000D+00 -.116415321827D-07  .320000000000D+02
     .600000000000D+01  .400000000000D+01
13 10 12 12  2  0  0.0  .289372168481D-03 -.113686837722D-11  .000000000000D+00
     .340000000000D+02  .222500000000D+02  .381480175895D-08  .303832044167D+01
     .124983489513D-05  .430628703907D-02  .887922942638D-05  .515367395592D+04
     .720000000000D+04  .819563865662D-07 -.209531146062D+01  .745058059692D-08
     .991237231044D+00  .224031250000D+03  .179858494123D+01 -.765067582421D-08
    -.696457581682D-10  .100000000000D+01  .161400000000D+04  .000000000000D+00
     .240000000000D+01  .000000000000D+00 -.107102096081D-07  .340000000000D+02
     .600000000000D+01  .400000000000D+01
14 10 12 12  2  0  0.0  .114842783660D-03  .318323145621D-11  .000000000000D+00
     .750000000000D+02  .337500000000D+02  .384944605917D-08  .299113238787D+01
     .173225998878D-05  .573167880066D-02  .907108187675D-05  .515361175346D+04
     .720000000000D+04  .298023223877D-07 -.211841641426D+01 -.128522515297D-06
     .984387630622D+00  .214750000000D+03 -.208189797207D+01 -.765960476757D-08
    -.135719938995D-09  .100000000000D+01  .161400000000D+04  .000000000000D+00
     .340000000000D+01  .000000000000D+00 -.884756445885D-08  .750000000000D+02
     .600000000000D+01  .400000000000D+01
15 10 12 12  2  0  0.0 -.173029955477D-03  .420641299570D-11  .000000000000D+00
     .620000000000D+02  .309062500000D+02  .471912514193D-08  .272657501133D+01
     .167265534401D-05  .314989965409D-02  .838935375214D-05  .515386958313D+04
     .720000000000D+04 -.745058059692D-07 -.218885045432D+01  .689178705215D-07
     .951791324466D+00  .213093750000D+03 -.175490861350D+00 -.809390857235D-08
    -.653598653579D-10  .100000000000D+01  .161400000000D+04  .000000000000D+00
     .240000000000D+01  .000000000000D+00 -.977888703346D-08  .620000000000D+02
     .600000000000D+01  .400000000000D+01
